{"fetched_at":"2026-07-10T07:58:44.755Z","source":"https://celestrak.org/NORAD/elements/gp.php?GROUP=spire&FORMAT=JSON","constellation":"spire","records":[{"OBJECT_NAME":"LEMUR-2-HUBBLE-4","OBJECT_ID":"2025-135AP","EPOCH":"2026-07-09T17:09:34.405056","CLASSIFICATION_TYPE":"U","MEAN_MOTION":14.93674474,"ECCENTRICITY":0.0002226,"INCLINATION":97.7714,"RA_OF_ASC_NODE":304.3583,"ARG_OF_PERICENTER":178.1277,"MEAN_ANOMALY":181.9951,"EPHEMERIS_TYPE":0,"NORAD_CAT_ID":64565,"ELEMENT_SET_NO":999,"REV_AT_EPOCH":5723,"BSTAR":0.0001057,"MEAN_MOTION_DOT":0.00001061,"MEAN_MOTION_DDOT":0},{"OBJECT_NAME":"LEMUR-2-SEJONG-2","OBJECT_ID":"2025-135BL","EPOCH":"2026-07-09T20:00:34.704000","CLASSIFICATION_TYPE":"U","MEAN_MOTION":14.96887799,"ECCENTRICITY":0.0003483,"INCLINATION":97.7702,"RA_OF_ASC_NODE":305.7041,"ARG_OF_PERICENTER":243.4766,"MEAN_ANOMALY":116.6099,"EPHEMERIS_TYPE":0,"NORAD_CAT_ID":64586,"ELEMENT_SET_NO":999,"REV_AT_EPOCH":5733,"BSTAR":0.00020624,"MEAN_MOTION_DOT":0.00002308,"MEAN_MOTION_DDOT":0},{"OBJECT_NAME":"LEMUR-2-HUBBLE-5","OBJECT_ID":"2025-135BT","EPOCH":"2026-07-09T06:10:03.711360","CLASSIFICATION_TYPE":"U","MEAN_MOTION":14.94201118,"ECCENTRICITY":0.00041158,"INCLINATION":97.7734,"RA_OF_ASC_NODE":304.5681,"ARG_OF_PERICENTER":260.6132,"MEAN_ANOMALY":99.4623,"EPHEMERIS_TYPE":0,"NORAD_CAT_ID":64840,"ELEMENT_SET_NO":999,"REV_AT_EPOCH":5720,"BSTAR":0.00013039501,"MEAN_MOTION_DOT":0.0000134,"MEAN_MOTION_DDOT":0},{"OBJECT_NAME":"LEMUR-2-KARENDARRELL","OBJECT_ID":"2025-135BU","EPOCH":"2026-07-08T20:40:04.897056","CLASSIFICATION_TYPE":"U","MEAN_MOTION":15.00440878,"ECCENTRICITY":0.00117501,"INCLINATION":97.7693,"RA_OF_ASC_NODE":306.0385,"ARG_OF_PERICENTER":124.4354,"MEAN_ANOMALY":235.7982,"EPHEMERIS_TYPE":0,"NORAD_CAT_ID":64841,"ELEMENT_SET_NO":999,"REV_AT_EPOCH":5726,"BSTAR":0.00037563629,"MEAN_MOTION_DOT":0.00004672,"MEAN_MOTION_DDOT":0},{"OBJECT_NAME":"LEMUR-2-LUCILLE-ROSE","OBJECT_ID":"2025-135BV","EPOCH":"2026-07-09T13:38:09.318624","CLASSIFICATION_TYPE":"U","MEAN_MOTION":15.00445642,"ECCENTRICITY":0.0014154,"INCLINATION":97.7711,"RA_OF_ASC_NODE":306.7804,"ARG_OF_PERICENTER":206.4413,"MEAN_ANOMALY":153.609,"EPHEMERIS_TYPE":0,"NORAD_CAT_ID":65403,"ELEMENT_SET_NO":999,"REV_AT_EPOCH":5199,"BSTAR":0.00036243,"MEAN_MOTION_DOT":0.00004508,"MEAN_MOTION_DDOT":0},{"OBJECT_NAME":"LEMUR-2-AFFIE-WAUWIE","OBJECT_ID":"2025-248C","EPOCH":"2026-07-08T12:07:48.199872","CLASSIFICATION_TYPE":"U","MEAN_MOTION":15.28058168,"ECCENTRICITY":0.00085285,"INCLINATION":45.3917,"RA_OF_ASC_NODE":359.4149,"ARG_OF_PERICENTER":217.2941,"MEAN_ANOMALY":142.7357,"EPHEMERIS_TYPE":0,"NORAD_CAT_ID":66295,"ELEMENT_SET_NO":999,"REV_AT_EPOCH":3785,"BSTAR":0.0005560449,"MEAN_MOTION_DOT":0.00015242,"MEAN_MOTION_DDOT":0},{"OBJECT_NAME":"OTTER SDM","OBJECT_ID":"2025-276N","EPOCH":"2026-07-09T04:08:36.161664","CLASSIFICATION_TYPE":"U","MEAN_MOTION":15.20009823,"ECCENTRICITY":0.00042405,"INCLINATION":97.4202,"RA_OF_ASC_NODE":263.2859,"ARG_OF_PERICENTER":282.7766,"MEAN_ANOMALY":77.2995,"EPHEMERIS_TYPE":0,"NORAD_CAT_ID":66678,"ELEMENT_SET_NO":999,"REV_AT_EPOCH":3375,"BSTAR":0.00020564658,"MEAN_MOTION_DOT":0.00004363,"MEAN_MOTION_DDOT":0},{"OBJECT_NAME":"LEMUR-2-STAS-GORBUK","OBJECT_ID":"2025-276W","EPOCH":"2026-07-08T17:33:27.856224","CLASSIFICATION_TYPE":"U","MEAN_MOTION":15.19615471,"ECCENTRICITY":0.00034361,"INCLINATION":97.4237,"RA_OF_ASC_NODE":262.9047,"ARG_OF_PERICENTER":281.4027,"MEAN_ANOMALY":78.6822,"EPHEMERIS_TYPE":0,"NORAD_CAT_ID":66686,"ELEMENT_SET_NO":999,"REV_AT_EPOCH":3368,"BSTAR":0.00018026999,"MEAN_MOTION_DOT":0.00003772,"MEAN_MOTION_DDOT":0},{"OBJECT_NAME":"LEMUR-2-TEODOR","OBJECT_ID":"2025-276DG","EPOCH":"2026-07-09T03:39:03.609504","CLASSIFICATION_TYPE":"U","MEAN_MOTION":15.21295344,"ECCENTRICITY":0.0002324,"INCLINATION":97.4142,"RA_OF_ASC_NODE":263.5823,"ARG_OF_PERICENTER":94.0564,"MEAN_ANOMALY":266.0937,"EPHEMERIS_TYPE":0,"NORAD_CAT_ID":66768,"ELEMENT_SET_NO":999,"REV_AT_EPOCH":3378,"BSTAR":0.00019715611,"MEAN_MOTION_DOT":0.00004341,"MEAN_MOTION_DDOT":0},{"OBJECT_NAME":"LEMUR-2-LAILA","OBJECT_ID":"2025-276DQ","EPOCH":"2026-07-08T17:28:38.742816","CLASSIFICATION_TYPE":"U","MEAN_MOTION":15.21517643,"ECCENTRICITY":0.00028988,"INCLINATION":97.4166,"RA_OF_ASC_NODE":263.2996,"ARG_OF_PERICENTER":104.2252,"MEAN_ANOMALY":255.9306,"EPHEMERIS_TYPE":0,"NORAD_CAT_ID":66776,"ELEMENT_SET_NO":999,"REV_AT_EPOCH":3372,"BSTAR":0.00017456123,"MEAN_MOTION_DOT":0.0000386,"MEAN_MOTION_DDOT":0},{"OBJECT_NAME":"LEMUR-2-CELIJO-SB-PK","OBJECT_ID":"2025-276DW","EPOCH":"2026-07-08T17:10:02.402976","CLASSIFICATION_TYPE":"U","MEAN_MOTION":15.00241883,"ECCENTRICITY":0.00073369,"INCLINATION":97.5199,"RA_OF_ASC_NODE":259.7831,"ARG_OF_PERICENTER":80.2189,"MEAN_ANOMALY":279.9863,"EPHEMERIS_TYPE":0,"NORAD_CAT_ID":66781,"ELEMENT_SET_NO":999,"REV_AT_EPOCH":2585,"BSTAR":0.00032737877,"MEAN_MOTION_DOT":0.00004042,"MEAN_MOTION_DDOT":0},{"OBJECT_NAME":"LEMUR-2-FINNIAN","OBJECT_ID":"2025-276DX","EPOCH":"2026-07-08T19:41:21.863616","CLASSIFICATION_TYPE":"U","MEAN_MOTION":15.0057027,"ECCENTRICITY":0.00083289,"INCLINATION":97.5333,"RA_OF_ASC_NODE":260.1371,"ARG_OF_PERICENTER":23.479,"MEAN_ANOMALY":336.6813,"EPHEMERIS_TYPE":0,"NORAD_CAT_ID":66782,"ELEMENT_SET_NO":999,"REV_AT_EPOCH":2324,"BSTAR":0.00016039139,"MEAN_MOTION_DOT":0.00001968,"MEAN_MOTION_DDOT":0},{"OBJECT_NAME":"LEMUR-2-STARLIGHT","OBJECT_ID":"2025-276DY","EPOCH":"2026-07-09T03:06:11.781792","CLASSIFICATION_TYPE":"U","MEAN_MOTION":14.99306207,"ECCENTRICITY":0.00147642,"INCLINATION":97.5228,"RA_OF_ASC_NODE":260.0177,"ARG_OF_PERICENTER":64.9575,"MEAN_ANOMALY":295.318,"EPHEMERIS_TYPE":0,"NORAD_CAT_ID":66783,"ELEMENT_SET_NO":999,"REV_AT_EPOCH":3348,"BSTAR":0.00034755603,"MEAN_MOTION_DOT":0.00004197,"MEAN_MOTION_DDOT":0},{"OBJECT_NAME":"LEMUR-2-TARTIFLETTE","OBJECT_ID":"2025-276DZ","EPOCH":"2026-07-09T03:03:48.775104","CLASSIFICATION_TYPE":"U","MEAN_MOTION":14.99294218,"ECCENTRICITY":0.00137939,"INCLINATION":97.5229,"RA_OF_ASC_NODE":260.0239,"ARG_OF_PERICENTER":72.8301,"MEAN_ANOMALY":287.4432,"EPHEMERIS_TYPE":0,"NORAD_CAT_ID":66784,"ELEMENT_SET_NO":999,"REV_AT_EPOCH":3348,"BSTAR":0.00028474227,"MEAN_MOTION_DOT":0.00003426,"MEAN_MOTION_DDOT":0},{"OBJECT_NAME":"LEMUR-2-VUKASIN","OBJECT_ID":"2025-276EA","EPOCH":"2026-07-08T18:28:02.251200","CLASSIFICATION_TYPE":"U","MEAN_MOTION":15.00508276,"ECCENTRICITY":0.00040519,"INCLINATION":97.5244,"RA_OF_ASC_NODE":260.0251,"ARG_OF_PERICENTER":73.4291,"MEAN_ANOMALY":286.7378,"EPHEMERIS_TYPE":0,"NORAD_CAT_ID":66785,"ELEMENT_SET_NO":999,"REV_AT_EPOCH":3338,"BSTAR":0.00027693947,"MEAN_MOTION_DOT":0.00003433,"MEAN_MOTION_DDOT":0},{"OBJECT_NAME":"LEMUR-2-HOTSPUR-TOM","OBJECT_ID":"2025-276EB","EPOCH":"2026-07-08T23:42:58.355424","CLASSIFICATION_TYPE":"U","MEAN_MOTION":14.99200748,"ECCENTRICITY":0.00138758,"INCLINATION":97.5219,"RA_OF_ASC_NODE":259.8657,"ARG_OF_PERICENTER":64.3983,"MEAN_ANOMALY":295.8673,"EPHEMERIS_TYPE":0,"NORAD_CAT_ID":66786,"ELEMENT_SET_NO":999,"REV_AT_EPOCH":3339,"BSTAR":0.00029942555,"MEAN_MOTION_DOT":0.00003597,"MEAN_MOTION_DDOT":0}]}
